{
  "type": "FeatureCollection",
  "features": [
    {
      "type": "Feature",
      "properties": {
        "norad_id": 30504,
        "name": "FENGYUN 1C DEB",
        "group": "fengyun-1c-debris",
        "lat": 6.8608154930922005,
        "lon": -149.1682144473041,
        "alt_km": 775.88735341356,
        "timestamp": "2025-12-09T14:52:26.438661+00:00",
        "meta_object_name": "FENGYUN 1C DEB",
        "meta_object_id": "1999-025AHS",
        "meta_epoch": "2025-12-08T16:41:38.123232",
        "meta_mean_motion": 14.20477838,
        "meta_eccentricity": 0.01119668,
        "meta_inclination": 99.0255,
        "meta_ra_of_asc_node": 28.7929,
        "meta_arg_of_pericenter": 227.9441,
        "meta_mean_anomaly": 262.6882,
        "meta_ephemeris_type": 0,
        "meta_classification_type": "U",
        "meta_norad_cat_id": 30504,
        "meta_element_set_no": 999,
        "meta_rev_at_epoch": 97336,
        "meta_bstar": 0.00093971319,
        "meta_mean_motion_dot": 2.102e-05,
        "meta_mean_motion_ddot": 0,
        "tle_line1": "1 30504U 99025AHS 25342.69558013  .00002102  00000+0  93971-3 0  9996",
        "tle_line2": "2 30504  99.0255  28.7929 0111966 227.9441 262.6882 14.20477838973360"
      },
      "geometry": {
        "type": "Point",
        "coordinates": [
          -149.1682144473041,
          6.8608154930922005
        ]
      }
    },
    {
      "type": "Feature",
      "properties": {
        "norad_id": 30505,
        "name": "FENGYUN 1C DEB",
        "group": "fengyun-1c-debris",
        "lat": 55.93802329867066,
        "lon": 49.79963632114371,
        "alt_km": 857.4477858536657,
        "timestamp": "2025-12-09T14:52:26.438671+00:00",
        "meta_object_name": "FENGYUN 1C DEB",
        "meta_object_id": "1999-025AHT",
        "meta_epoch": "2025-12-09T04:36:27.104832",
        "meta_mean_motion": 14.21993129,
        "meta_eccentricity": 0.00633125,
        "meta_inclination": 98.9258,
        "meta_ra_of_asc_node": 62.8084,
        "meta_arg_of_pericenter": 252.154,
        "meta_mean_anomaly": 136.1176,
        "meta_ephemeris_type": 0,
        "meta_classification_type": "U",
        "meta_norad_cat_id": 30505,
        "meta_element_set_no": 999,
        "meta_rev_at_epoch": 96873,
        "meta_bstar": 0.0020575388,
        "meta_mean_motion_dot": 4.596e-05,
        "meta_mean_motion_ddot": 0,
        "tle_line1": "1 30505U 99025AHT 25343.19198038  .00004596  00000+0  20575-2 0  9998",
        "tle_line2": "2 30505  98.9258  62.8084 0063312 252.1540 136.1176 14.21993129968737"
      },
      "geometry": {
        "type": "Point",
        "coordinates": [
          49.79963632114371,
          55.93802329867066
        ]
      }
    },
    {
      "type": "Feature",
      "properties": {
        "norad_id": 30506,
        "name": "FENGYUN 1C DEB",
        "group": "fengyun-1c-debris",
        "lat": -54.01908264872913,
        "lon": 156.52679195507355,
        "alt_km": 897.6954210690601,
        "timestamp": "2025-12-09T14:52:26.438682+00:00",
        "meta_object_name": "FENGYUN 1C DEB",
        "meta_object_id": "1999-025AHU",
        "meta_epoch": "2025-12-09T05:50:52.295712",
        "meta_mean_motion": 14.08645125,
        "meta_eccentricity": 0.00704473,
        "meta_inclination": 98.7569,
        "meta_ra_of_asc_node": 348.4186,
        "meta_arg_of_pericenter": 357.87,
        "meta_mean_anomaly": 131.5711,
        "meta_ephemeris_type": 0,
        "meta_classification_type": "U",
        "meta_norad_cat_id": 30506,
        "meta_element_set_no": 999,
        "meta_rev_at_epoch": 96772,
        "meta_bstar": 0.00057036198,
        "meta_mean_motion_dot": 9.61e-06,
        "meta_mean_motion_ddot": 0,
        "tle_line1": "1 30506U 99025AHU 25343.24366083  .00000961  00000+0  57036-3 0  9997",
        "tle_line2": "2 30506  98.7569 348.4186 0070447 357.8700 131.5711 14.08645125967722"
      },
      "geometry": {
        "type": "Point",
        "coordinates": [
          156.52679195507355,
          -54.01908264872913
        ]
      }
    },
    {
      "type": "Feature",
      "properties": {
        "norad_id": 30507,
        "name": "FENGYUN 1C DEB",
        "group": "fengyun-1c-debris",
        "lat": -56.29245906962825,
        "lon": 61.84412796322207,
        "alt_km": 897.7839851182425,
        "timestamp": "2025-12-09T14:52:26.438692+00:00",
        "meta_object_name": "FENGYUN 1C DEB",
        "meta_object_id": "1999-025AHV",
        "meta_epoch": "2025-12-08T03:36:21.792672",
        "meta_mean_motion": 14.13144058,
        "meta_eccentricity": 0.01283559,
        "meta_inclination": 99.0131,
        "meta_ra_of_asc_node": 46.6005,
        "meta_arg_of_pericenter": 189.1429,
        "meta_mean_anomaly": 200.5522,
        "meta_ephemeris_type": 0,
        "meta_classification_type": "U",
        "meta_norad_cat_id": 30507,
        "meta_element_set_no": 999,
        "meta_rev_at_epoch": 96433,
        "meta_bstar": 0.0015827711,
        "meta_mean_motion_dot": 3.156e-05,
        "meta_mean_motion_ddot": 0,
        "tle_line1": "1 30507U 99025AHV 25342.15025223  .00003156  00000+0  15828-2 0  9996",
        "tle_line2": "2 30507  99.0131  46.6005 0128355 189.1429 200.5522 14.13144058964331"
      },
      "geometry": {
        "type": "Point",
        "coordinates": [
          61.84412796322207,
          -56.29245906962825
        ]
      }
    },
    {
      "type": "Feature",
      "properties": {
        "norad_id": 30509,
        "name": "FENGYUN 1C DEB",
        "group": "fengyun-1c-debris",
        "lat": 2.203253714503045,
        "lon": 35.98589929115898,
        "alt_km": 888.9971931672599,
        "timestamp": "2025-12-09T14:52:26.438702+00:00",
        "meta_object_name": "FENGYUN 1C DEB",
        "meta_object_id": "1999-025AHX",
        "meta_epoch": "2025-12-09T04:23:54.741408",
        "meta_mean_motion": 14.07611121,
        "meta_eccentricity": 0.01013401,
        "meta_inclination": 98.4645,
        "meta_ra_of_asc_node": 215.2485,
        "meta_arg_of_pericenter": 73.4727,
        "meta_mean_anomaly": 52.4911,
        "meta_ephemeris_type": 0,
        "meta_classification_type": "U",
        "meta_norad_cat_id": 30509,
        "meta_element_set_no": 999,
        "meta_rev_at_epoch": 95672,
        "meta_bstar": 0.0024448186,
        "meta_mean_motion_dot": 4.288e-05,
        "meta_mean_motion_ddot": 0,
        "tle_line1": "1 30509U 99025AHX 25343.18327247  .00004288  00000+0  24448-2 0  9998",
        "tle_line2": "2 30509  98.4645 215.2485 0101340  73.4727  52.4911 14.07611121956726"
      },
      "geometry": {
        "type": "Point",
        "coordinates": [
          35.98589929115898,
          2.203253714503045
        ]
      }
    },
    {
      "type": "Feature",
      "properties": {
        "norad_id": 30510,
        "name": "FENGYUN 1C DEB",
        "group": "fengyun-1c-debris",
        "lat": 11.741395237188637,
        "lon": 177.48825940868278,
        "alt_km": 794.5249920121305,
        "timestamp": "2025-12-09T14:52:26.438712+00:00",
        "meta_object_name": "FENGYUN 1C DEB",
        "meta_object_id": "1999-025AHY",
        "meta_epoch": "2025-12-09T00:34:32.945088",
        "meta_mean_motion": 14.12821247,
        "meta_eccentricity": 0.00786396,
        "meta_inclination": 99.2448,
        "meta_ra_of_asc_node": 354.9336,
        "meta_arg_of_pericenter": 176.6252,
        "meta_mean_anomaly": 203.0186,
        "meta_ephemeris_type": 0,
        "meta_classification_type": "U",
        "meta_norad_cat_id": 30510,
        "meta_element_set_no": 999,
        "meta_rev_at_epoch": 96522,
        "meta_bstar": 0.0015840465,
        "meta_mean_motion_dot": 2.986e-05,
        "meta_mean_motion_ddot": 0,
        "tle_line1": "1 30510U 99025AHY 25343.02399242  .00002986  00000+0  15840-2 0  9996",
        "tle_line2": "2 30510  99.2448 354.9336 0078639 176.6252 203.0186 14.12821247965228"
      },
      "geometry": {
        "type": "Point",
        "coordinates": [
          177.48825940868278,
          11.741395237188637
        ]
      }
    },
    {
      "type": "Feature",
      "properties": {
        "norad_id": 30514,
        "name": "FENGYUN 1C DEB",
        "group": "fengyun-1c-debris",
        "lat": 70.33496677877855,
        "lon": -17.234145374345484,
        "alt_km": 662.9279640130198,
        "timestamp": "2025-12-09T14:52:26.438722+00:00",
        "meta_object_name": "FENGYUN 1C DEB",
        "meta_object_id": "1999-025AJC",
        "meta_epoch": "2025-12-09T07:50:46.548096",
        "meta_mean_motion": 14.34338838,
        "meta_eccentricity": 0.01745836,
        "meta_inclination": 98.4134,
        "meta_ra_of_asc_node": 6.9464,
        "meta_arg_of_pericenter": 104.218,
        "meta_mean_anomaly": 257.8467,
        "meta_ephemeris_type": 0,
        "meta_classification_type": "U",
        "meta_norad_cat_id": 30514,
        "meta_element_set_no": 999,
        "meta_rev_at_epoch": 98176,
        "meta_bstar": 0.00077045844,
        "meta_mean_motion_dot": 2.526e-05,
        "meta_mean_motion_ddot": 0,
        "tle_line1": "1 30514U 99025AJC 25343.32692764  .00002526  00000+0  77046-3 0  9995",
        "tle_line2": "2 30514  98.4134   6.9464 0174583 104.2180 257.8467 14.34338838981762"
      },
      "geometry": {
        "type": "Point",
        "coordinates": [
          -17.234145374345484,
          70.33496677877855
        ]
      }
    }
  ]
}